{
  "type": "FeatureCollection",
  "features": [
    {
      "type": "Feature",
      "properties": {
        "norad_id": 40894,
        "name": "GAOFEN-9 01",
        "group": "resource",
        "lat": -23.299626822800466,
        "lon": 28.615482670214853,
        "alt_km": 616.9103453742473,
        "timestamp": "2025-12-12T07:43:20.160847+00:00",
        "meta_object_name": "GAOFEN-9 01",
        "meta_object_id": "2015-047A",
        "meta_epoch": "2025-12-12T01:20:52.352736",
        "meta_mean_motion": 14.82419912,
        "meta_eccentricity": 0.00284454,
        "meta_inclination": 97.6545,
        "meta_ra_of_asc_node": 25.041,
        "meta_arg_of_pericenter": 36.5182,
        "meta_mean_anomaly": 323.7965,
        "meta_ephemeris_type": 0,
        "meta_classification_type": "U",
        "meta_norad_cat_id": 40894,
        "meta_element_set_no": 999,
        "meta_rev_at_epoch": 55246,
        "meta_bstar": 0.00026571751,
        "meta_mean_motion_dot": 2.093e-05,
        "meta_mean_motion_ddot": 0,
        "tle_line1": "1 40894U 15047A   25346.05616149  .00002093  00000+0  26572-3 0  9992",
        "tle_line2": "2 40894  97.6545  25.0410 0028445  36.5182 323.7965 14.82419912552461"
      },
      "geometry": {
        "type": "Point",
        "coordinates": [
          28.615482670214853,
          -23.299626822800466
        ]
      }
    },
    {
      "type": "Feature",
      "properties": {
        "norad_id": 41026,
        "name": "YAOGAN-28",
        "group": "resource",
        "lat": 64.11414681073975,
        "lon": 108.85053026786642,
        "alt_km": 482.5476053457305,
        "timestamp": "2025-12-12T07:43:20.160858+00:00",
        "meta_object_name": "YAOGAN-28",
        "meta_object_id": "2015-064A",
        "meta_epoch": "2025-12-11T23:33:37.221120",
        "meta_mean_motion": 15.24333463,
        "meta_eccentricity": 0.00123742,
        "meta_inclination": 97.2804,
        "meta_ra_of_asc_node": 123.7951,
        "meta_arg_of_pericenter": 128.3829,
        "meta_mean_anomaly": 231.8522,
        "meta_ephemeris_type": 0,
        "meta_classification_type": "U",
        "meta_norad_cat_id": 41026,
        "meta_element_set_no": 999,
        "meta_rev_at_epoch": 56213,
        "meta_bstar": 0.00050331034,
        "meta_mean_motion_dot": 0.00012278,
        "meta_mean_motion_ddot": 0,
        "tle_line1": "1 41026U 15064A   25345.98168080  .00012278  00000+0  50331-3 0  9992",
        "tle_line2": "2 41026  97.2804 123.7951 0012374 128.3829 231.8522 15.24333463562137"
      },
      "geometry": {
        "type": "Point",
        "coordinates": [
          108.85053026786642,
          64.11414681073975
        ]
      }
    },
    {
      "type": "Feature",
      "properties": {
        "norad_id": 41038,
        "name": "YAOGAN-29",
        "group": "resource",
        "lat": -43.539854797724786,
        "lon": -178.21017614688105,
        "alt_km": 626.9864811426196,
        "timestamp": "2025-12-12T07:43:20.160868+00:00",
        "meta_object_name": "YAOGAN-29",
        "meta_object_id": "2015-069A",
        "meta_epoch": "2025-12-12T00:14:14.462304",
        "meta_mean_motion": 14.82879056,
        "meta_eccentricity": 2.713e-05,
        "meta_inclination": 98.0221,
        "meta_ra_of_asc_node": 9.1788,
        "meta_arg_of_pericenter": 330.2014,
        "meta_mean_anomaly": 29.9184,
        "meta_ephemeris_type": 0,
        "meta_classification_type": "U",
        "meta_norad_cat_id": 41038,
        "meta_element_set_no": 999,
        "meta_rev_at_epoch": 54288,
        "meta_bstar": 5.2699903e-05,
        "meta_mean_motion_dot": 3.73e-06,
        "meta_mean_motion_ddot": 0,
        "tle_line1": "1 41038U 15069A   25346.00988961  .00000373  00000+0  52700-4 0  9998",
        "tle_line2": "2 41038  98.0221   9.1788 0000271 330.2014  29.9184 14.82879056542886"
      },
      "geometry": {
        "type": "Point",
        "coordinates": [
          -178.21017614688105,
          -43.539854797724786
        ]
      }
    },
    {
      "type": "Feature",
      "properties": {
        "norad_id": 41167,
        "name": "KENT RIDGE 1",
        "group": "resource",
        "lat": 9.749753505302818,
        "lon": -105.76291885771694,
        "alt_km": 496.1650722325012,
        "timestamp": "2025-12-12T07:43:20.160879+00:00",
        "meta_object_name": "KENT RIDGE 1",
        "meta_object_id": "2015-077B",
        "meta_epoch": "2025-12-11T22:06:14.080320",
        "meta_mean_motion": 15.21626182,
        "meta_eccentricity": 0.00085131,
        "meta_inclination": 14.9787,
        "meta_ra_of_asc_node": 217.2158,
        "meta_arg_of_pericenter": 119.1546,
        "meta_mean_anomaly": 240.9628,
        "meta_ephemeris_type": 0,
        "meta_classification_type": "U",
        "meta_norad_cat_id": 41167,
        "meta_element_set_no": 999,
        "meta_rev_at_epoch": 55251,
        "meta_bstar": 0.00026336224,
        "meta_mean_motion_dot": 6.894e-05,
        "meta_mean_motion_ddot": 0,
        "tle_line1": "1 41167U 15077B   25345.92099630  .00006894  00000+0  26336-3 0  9995",
        "tle_line2": "2 41167  14.9787 217.2158 0008513 119.1546 240.9628 15.21626182552510"
      },
      "geometry": {
        "type": "Point",
        "coordinates": [
          -105.76291885771694,
          9.749753505302818
        ]
      }
    },
    {
      "type": "Feature",
      "properties": {
        "norad_id": 41194,
        "name": "GAOFEN-4",
        "group": "resource",
        "lat": -0.12288677359668367,
        "lon": -57.17206673510354,
        "alt_km": 35792.99906630373,
        "timestamp": "2025-12-12T07:43:20.160892+00:00",
        "meta_object_name": "GAOFEN-4",
        "meta_object_id": "2015-083A",
        "meta_epoch": "2025-12-11T20:51:47.818944",
        "meta_mean_motion": 1.00269803,
        "meta_eccentricity": 0.00034947,
        "meta_inclination": 0.1685,
        "meta_ra_of_asc_node": 81.0254,
        "meta_arg_of_pericenter": 106.3109,
        "meta_mean_anomaly": 312.1335,
        "meta_ephemeris_type": 0,
        "meta_classification_type": "U",
        "meta_norad_cat_id": 41194,
        "meta_element_set_no": 999,
        "meta_rev_at_epoch": 3665,
        "meta_bstar": 0,
        "meta_mean_motion_dot": -3.26e-06,
        "meta_mean_motion_ddot": 0,
        "tle_line1": "1 41194U 15083A   25345.86930346 -.00000326  00000+0  00000+0 0  9994",
        "tle_line2": "2 41194   0.1685  81.0254 0003494 106.3109 312.1335  1.00269803 36658"
      },
      "geometry": {
        "type": "Point",
        "coordinates": [
          -57.17206673510354,
          -0.12288677359668367
        ]
      }
    },
    {
      "type": "Feature",
      "properties": {
        "norad_id": 41240,
        "name": "JASON-3",
        "group": "resource",
        "lat": 5.33207754604046,
        "lon": -23.6754502108381,
        "alt_km": 1312.7797177199654,
        "timestamp": "2025-12-12T07:43:20.160903+00:00",
        "meta_object_name": "JASON-3",
        "meta_object_id": "2016-002A",
        "meta_epoch": "2025-12-11T23:21:51.626016",
        "meta_mean_motion": 12.87626475,
        "meta_eccentricity": 0.00071435,
        "meta_inclination": 66.0389,
        "meta_ra_of_asc_node": 159.4351,
        "meta_arg_of_pericenter": 270.7961,
        "meta_mean_anomaly": 89.2239,
        "meta_ephemeris_type": 0,
        "meta_classification_type": "U",
        "meta_norad_cat_id": 41240,
        "meta_element_set_no": 999,
        "meta_rev_at_epoch": 46314,
        "meta_bstar": 9.3464182e-05,
        "meta_mean_motion_dot": -3.9e-07,
        "meta_mean_motion_ddot": 0,
        "tle_line1": "1 41240U 16002A   25345.97351419 -.00000039  00000+0  93464-4 0  9990",
        "tle_line2": "2 41240  66.0389 159.4351 0007143 270.7961  89.2239 12.87626475463149"
      },
      "geometry": {
        "type": "Point",
        "coordinates": [
          -23.6754502108381,
          5.33207754604046
        ]
      }
    },
    {
      "type": "Feature",
      "properties": {
        "norad_id": 41335,
        "name": "SENTINEL-3A",
        "group": "resource",
        "lat": 7.3571188174910285,
        "lon": 50.215419699334085,
        "alt_km": 804.4909150517396,
        "timestamp": "2025-12-12T07:43:20.160913+00:00",
        "meta_object_name": "SENTINEL-3A",
        "meta_object_id": "2016-011A",
        "meta_epoch": "2025-12-11T23:16:18.706944",
        "meta_mean_motion": 14.26730256,
        "meta_eccentricity": 9.529e-05,
        "meta_inclination": 98.6316,
        "meta_ra_of_asc_node": 50.992,
        "meta_arg_of_pericenter": 89.5434,
        "meta_mean_anomaly": 270.5855,
        "meta_ephemeris_type": 0,
        "meta_classification_type": "U",
        "meta_norad_cat_id": 41335,
        "meta_element_set_no": 999,
        "meta_rev_at_epoch": 51136,
        "meta_bstar": 0.00011350994,
        "meta_mean_motion_dot": 2.31e-06,
        "meta_mean_motion_ddot": 0,
        "tle_line1": "1 41335U 16011A   25345.96966096  .00000231  00000+0  11351-3 0  9994",
        "tle_line2": "2 41335  98.6316  50.9920 0000952  89.5434 270.5855 14.26730256511369"
      },
      "geometry": {
        "type": "Point",
        "coordinates": [
          50.215419699334085,
          7.3571188174910285
        ]
      }
    }
  ]
}